{"type":"FeatureCollection","features":[{"type":"Feature","properties":{"kind":"minor"},"geometry":{"type":"MultiLineString","coordinates":[[[-104.84151,39.00358],[-104.85822,38.99708],[-104.87314,38.99732],[-104.88993,38.99398],[-104.89212,38.99502],[-104.89243,38.99909],[-104.89716,38.99984],[-104.89846,39.00108],[-104.89883,39.00527],[-104.8965,39.00908],[-104.89542,39.01396],[-104.89659,39.0165],[-104.89655,39.02114],[-104.8955,39.02226],[-104.8888,39.02288],[-104.87955,39.02009],[-104.86621,39.0185],[-104.85226,39.02136],[-104.83551,38.99344],[-104.83381,38.98243],[-104.83538,38.9761],[-104.8295,38.97326],[-104.82976,38.96418],[-104.82313,38.956],[-104.81838,38.95513]],[[-104.88683,38.99459],[-104.8867,38.99184],[-104.8899,38.98717],[-104.88934,38.98583],[-104.88658,38.98428],[-104.88532,38.98067],[-104.88031,38.97968],[-104.87075,38.97539],[-104.86543,38.9751],[-104.86103,38.97359],[-104.85218,38.97329],[-104.84099,38.96963],[-104.83775,38.97041],[-104.83498,38.9756],[-104.83364,38.98159],[-104.83493,38.99238],[-104.85187,39.02166]],[[-104.8481,39.01426],[-104.86612,39.01147],[-104.87421,39.00824],[-104.87696,39.00979],[-104.87719,39.01185],[-104.87617,39.01398],[-104.8708,39.01803],[-104.87042,39.01916],[-104.87279,39.01941]],[[-104.81557,38.77629],[-104.80386,38.78024],[-104.79738,38.78469],[-104.79631,38.78715],[-104.80259,38.79194],[-104.80352,38.79564],[-104.80325,38.79258],[-104.80118,38.79063]],[[-104.68013,38.63],[-104.67974,38.63843],[-104.68209,38.64122],[-104.6824,38.64538],[-104.6896,38.6515],[-104.69114,38.65437],[-104.69242,38.6643],[-104.68384,38.66488],[-104.67959,38.66792],[-104.67539,38.66862],[-104.67369,38.67],[-104.67369,38.70849]],[[-104.6527,38.92649],[-104.68274,38.9267],[-104.68259,38.93436],[-104.67838,38.93862],[-104.6779,38.94518],[-104.67859,38.9385],[-104.68296,38.93406],[-104.68297,38.9118],[-104.67344,38.91186]],[[-104.78669,38.77645],[-104.79552,38.77285],[-104.79766,38.76953],[-104.79745,38.76608],[-104.79544,38.76448],[-104.78971,38.75597],[-104.79056,38.75292],[-104.78737,38.74786],[-104.78012,38.73874],[-104.76915,38.73094],[-104.75448,38.72493],[-104.74869,38.72578],[-104.76144,38.73028],[-104.77241,38.73653],[-104.78124,38.74447],[-104.78799,38.7534],[-104.80113,38.74886],[-104.81189,38.74947],[-104.81251,38.74822]],[[-104.60772,38.94417],[-104.60187,38.94473],[-104.58667,38.96072],[-104.58461,38.96476],[-104.58071,38.96868],[-104.57411,38.96772],[-104.56732,38.96951],[-104.56449,38.96925],[-104.55289,38.95906],[-104.55406,38.86755],[-104.55344,38.80142],[-104.55257,38.79885],[-104.54865,38.79417],[-104.54778,38.78114],[-104.54841,38.77895],[-104.55228,38.7743],[-104.55249,38.76855],[-104.55358,38.76685],[-104.55575,38.76613],[-104.61401,38.76643],[-104.64211,38.76151],[-104.65957,38.76224],[-104.65956,38.78386],[-104.65736,38.79115],[-104.65775,38.79496],[-104.66221,38.80157],[-104.6691,38.80753],[-104.68269,38.825],[-104.68294,38.84865],[-104.68129,38.85126],[-104.68288,38.85339],[-104.68299,38.90099],[-104.6899,38.901],[-104.6936,38.90266],[-104.69889,38.90263],[-104.70463,38.89902],[-104.70832,38.89844],[-104.71709,38.89371],[-104.73612,38.89698],[-104.74785,38.89705],[-104.73615,38.89686],[-104.71698,38.89352],[-104.70825,38.89831],[-104.70455,38.89888],[-104.69878,38.90251],[-104.69367,38.90252],[-104.68963,38.90083],[-104.68268,38.90089]],[[-104.79452,38.82522],[-104.7681,38.82536],[-104.76851,38.8285],[-104.76637,38.83119],[-104.76659,38.83964],[-104.77595,38.83974],[-104.77591,38.83857],[-104.77581,38.83992],[-104.76659,38.83981],[-104.76648,38.84699],[-104.77587,38.84708],[-104.77595,38.83974],[-104.78595,38.83705],[-104.7945,38.83717],[-104.79471,38.83297],[-104.8038,38.83326],[-104.80442,38.82112],[-104.81869,38.82158],[-104.81847,38.8267],[-104.82571,38.82693],[-104.82518,38.83541],[-104.82173,38.83527],[-104.82127,38.83806],[-104.82524,38.83818],[-104.82532,38.83679],[-104.83254,38.83696],[-104.82777,38.83683],[-104.82537,38.83552],[-104.82551,38.83254],[-104.82188,38.83242],[-104.82173,38.83527],[-104.81807,38.83516],[-104.81643,38.86671]],[[-104.82072,38.91225],[-104.82461,38.91464],[-104.82993,38.91481],[-104.83203,38.91694],[-104.83788,38.91891],[-104.8429,38.92239],[-104.84285,38.92444],[-104.8545,38.92376],[-104.86038,38.92777],[-104.86373,38.92843],[-104.86296,38.9046],[-104.86657,38.90306],[-104.87531,38.89439],[-104.87498,38.88903],[-104.87278,38.88443],[-104.86602,38.87806]],[[-104.86695,38.86751],[-104.86827,38.86685],[-104.86805,38.85775],[-104.87214,38.8532],[-104.86843,38.85735],[-104.86821,38.86087],[-104.86554,38.86087],[-104.86486,38.8573],[-104.87015,38.85176],[-104.83789,38.8329],[-104.83435,38.83275],[-104.83431,38.83698],[-104.83254,38.83696]],[[-105.0238,39.17],[-105.02306,39.16906],[-105.02399,39.16767],[-105.02076,39.1652],[-105.02238,39.1638],[-105.021,39.15945],[-105.02236,39.15856],[-105.02231,39.15742],[-105.02632,39.15568],[-105.024,39.14981],[-105.02506,39.14865],[-105.0252,39.14573],[-105.0266,39.14425],[-105.02744,39.13768],[-105.02674,39.13558],[-105.02949,39.12995],[-105.03208,39.12789],[-105.03239,39.12642],[-105.03114,39.12441],[-105.03253,39.12243],[-105.03191,39.12079],[-105.03292,39.11852],[-105.03471,39.11585],[-105.04032,39.11416],[-105.04121,39.11037],[-105.03715,39.10902],[-105.03636,39.10733],[-105.03404,39.10674],[-105.03433,39.10449],[-105.03004,39.1031],[-105.02648,39.10326],[-105.02564,39.1008],[-105.0229,39.10108],[-105.02135,39.09917],[-105.02105,39.09715],[-105.02387,39.09693],[-105.0245,39.09452],[-105.02711,39.09335],[-105.02772,39.08544],[-105.02738,39.0814],[-105.02607,39.0799],[-105.02772,39.07782],[-105.02663,39.07332],[-105.02433,39.06923],[-105.02467,39.06757],[-105.022,39.06563],[-105.02406,39.06273],[-105.02128,39.06041],[-105.02118,39.05824],[-105.01926,39.05824],[-105.01829,39.0567],[-105.01992,39.05524],[-105.02164,39.05105],[-105.01998,39.04996],[-105.01811,39.04598],[-105.01585,39.03983],[-105.01644,39.03837],[-105.01357,39.03656],[-105.01152,39.03332],[-105.0127,39.03117],[-105.00979,39.02893],[-105.01086,39.02656],[-105.01324,39.02467],[-105.01381,39.0206],[-105.02171,39.02223],[-105.02758,39.01956],[-105.03285,39.01907],[-105.03769,39.01991],[-105.04004,39.01902],[-105.04613,39.01026],[-105.04568,39.00031],[-105.04738,38.99633],[-105.04741,38.98902]],[[-104.71367,38.67157],[-104.70704,38.67395],[-104.70453,38.67951],[-104.70094,38.67947],[-104.70115,38.6769],[-104.69681,38.67385],[-104.69242,38.6643]],[[-104.69492,39.1279],[-104.69908,39.12831],[-104.70173,39.12961],[-104.89835,39.12988],[-104.90074,39.12969],[-104.90894,39.12587],[-104.91022,39.12618],[-104.90977,39.14034],[-104.91376,39.14086],[-104.91457,39.14204],[-104.91457,39.16167],[-104.91341,39.17]],[[-104.67356,38.68653],[-104.67816,38.68624],[-104.67817,38.68417],[-104.69278,38.68399],[-104.69491,38.68319],[-104.69383,38.68357],[-104.69429,38.68661],[-104.69327,38.68923],[-104.69495,38.69207],[-104.69681,38.69327],[-104.69683,38.70841],[-104.70637,38.70794],[-104.70841,38.70909]],[[-104.71989,38.87731],[-104.73013,38.87687],[-104.73553,38.87795],[-104.74605,38.87411],[-104.74923,38.87411],[-104.75407,38.87629],[-104.75475,38.87892],[-104.75358,38.88197],[-104.74815,38.88611],[-104.74159,38.88655],[-104.73085,38.88479],[-104.71467,38.88548],[-104.70923,38.88654],[-104.6827,38.8872]],[[-104.85325,38.80153],[-104.85868,38.80721],[-104.85591,38.80528],[-104.85178,38.79944],[-104.8512,38.79461],[-104.85207,38.79331],[-104.84868,38.79139],[-104.85207,38.79331]],[[-104.83576,38.89681],[-104.8357,38.89357],[-104.83396,38.8915],[-104.83696,38.88441],[-104.83625,38.87871],[-104.83719,38.87638],[-104.82991,38.87608],[-104.82266,38.87449],[-104.82537,38.83552],[-104.82511,38.83676],[-104.82166,38.83665],[-104.82139,38.83812],[-104.81947,38.87446],[-104.81296,38.87419],[-104.81967,38.87437],[-104.82093,38.85059],[-104.82802,38.85109]],[[-104.72739,38.827],[-104.72503,38.82814],[-104.72474,38.83554],[-104.7258,38.83884]],[[-104.74792,38.87192],[-104.74952,38.87164],[-104.75353,38.86796],[-104.76312,38.86783],[-104.76611,38.86583],[-104.76543,38.85254],[-104.76659,38.84944],[-104.76658,38.84709],[-104.74805,38.84711],[-104.74807,38.83779],[-104.7453,38.83542],[-104.74861,38.83129],[-104.74874,38.82505],[-104.75047,38.8228],[-104.75029,38.82086],[-104.74778,38.81975],[-104.74577,38.81652],[-104.74857,38.81193]],[[-104.70094,38.67947],[-104.70141,38.69025],[-104.70471,38.69667],[-104.7055,38.69652],[-104.70459,38.68309],[-104.69491,38.68319]],[[-104.86677,38.85513],[-104.85396,38.8477],[-104.854,38.84627],[-104.85919,38.84028],[-104.85969,38.81474],[-104.85805,38.81168],[-104.85859,38.80776]],[[-104.82221,38.80667],[-104.82874,38.80657],[-104.84085,38.80161],[-104.84088,38.80324],[-104.85184,38.79952]],[[-104.85914,38.94395],[-104.86008,38.94257],[-104.86412,38.94222],[-104.86985,38.93955],[-104.87218,38.94135]],[[-104.82235,38.81463],[-104.82456,38.81468],[-104.82451,38.81547],[-104.82228,38.81555],[-104.82167,38.83241],[-104.81812,38.83231],[-104.81825,38.82819],[-104.81776,38.83794],[-104.80217,38.83745],[-104.81102,38.83774]],[[-104.83064,39.02722],[-104.8268,39.02857],[-104.82279,39.02731],[-104.79822,39.02746],[-104.78953,39.03016],[-104.77815,39.02856],[-104.78928,39.03007],[-104.7982,39.02734],[-104.82256,39.02716],[-104.82788,39.0284],[-104.83077,39.03045]],[[-104.83431,38.83698],[-104.83518,38.83701],[-104.83431,38.83698],[-104.8337,38.83909],[-104.83343,38.8548],[-104.83582,38.85543],[-104.8358,38.87454],[-104.83719,38.87638],[-104.84673,38.87617],[-104.84412,38.87313],[-104.84691,38.87601],[-104.85052,38.8758],[-104.85379,38.87428],[-104.8599,38.86855],[-104.86333,38.86721],[-104.86361,38.86149],[-104.86554,38.86087],[-104.8694,38.87646],[-104.8705,38.87772]],[[-104.77067,39.10001],[-104.79845,39.10008],[-104.80641,39.09502],[-104.81716,39.09274],[-104.85735,39.09313],[-104.86825,39.09159],[-104.86805,39.09796],[-104.87514,39.09787],[-104.89087,39.10608],[-104.91473,39.12046],[-104.91476,39.1224],[-104.91215,39.12555],[-104.91022,39.12618]],[[-104.8201,38.93077],[-104.82228,38.92942],[-104.8283,38.92935],[-104.83191,38.92811],[-104.83604,38.92899],[-104.83781,38.92606],[-104.84088,38.9255],[-104.84276,38.92366]],[[-104.87015,38.85176],[-104.87207,38.85314],[-104.8727,38.85122],[-104.87214,38.8532],[-104.87618,38.85544],[-104.89474,38.8585],[-104.89704,38.85737],[-104.89416,38.85837]],[[-104.68292,38.76081],[-104.67403,38.76207],[-104.65957,38.7621],[-104.65875,38.75607],[-104.6483,38.7465],[-104.64813,38.7434],[-104.64978,38.73756],[-104.64184,38.73755],[-104.63717,38.73999],[-104.63073,38.74009],[-104.6372,38.73982],[-104.64149,38.73746],[-104.64982,38.73745],[-104.65604,38.72057],[-104.6608,38.71497],[-104.66917,38.70851],[-104.69683,38.70841],[-104.69706,38.71003],[-104.70143,38.7144],[-104.70134,38.71823],[-104.69949,38.7232]],[[-104.82406,38.8606],[-104.81198,38.86023],[-104.80307,38.86569],[-104.79421,38.86199],[-104.79512,38.87937],[-104.79369,38.88153],[-104.79015,38.88304],[-104.78583,38.88768],[-104.78508,38.89417],[-104.7749,38.90541],[-104.77512,38.94199],[-104.77375,38.94589],[-104.76552,38.95106],[-104.76435,38.95314],[-104.76417,38.95672],[-104.7504,38.95656],[-104.75136,38.9506],[-104.75584,38.94311],[-104.75958,38.94305],[-104.76237,38.94176],[-104.76986,38.94242],[-104.77808,38.94179],[-104.78342,38.94419],[-104.80068,38.94517],[-104.79224,38.9445],[-104.79153,38.94674],[-104.792,38.95552],[-104.78586,38.95791],[-104.78489,38.95908],[-104.78499,38.97134],[-104.78477,38.95876],[-104.79199,38.95535]],[[-104.75762,38.78431],[-104.75411,38.78662],[-104.7542,38.79246],[-104.75594,38.79644],[-104.7575,38.79644],[-104.74145,38.79759],[-104.73625,38.79887],[-104.72896,38.79882]],[[-104.81248,38.83353],[-104.81467,38.83356],[-104.8172,38.83223],[-104.8144,38.83345],[-104.8038,38.83326],[-104.80293,38.85],[-104.81707,38.85046],[-104.81622,38.8667],[-104.82351,38.86696]],[[-104.85502,39.09316],[-104.85531,39.0913],[-104.85759,39.0888],[-104.85726,39.07751],[-104.8511,39.07355],[-104.84856,39.06369],[-104.84499,39.05974],[-104.84468,39.04659],[-104.84253,39.04326],[-104.83644,39.04024],[-104.83297,39.03183],[-104.83139,39.03038]],[[-104.84071,38.83446],[-104.84018,38.82396],[-104.84236,38.81866],[-104.84094,38.81493],[-104.84088,38.80324],[-104.82635,38.80947]],[[-104.81747,38.91581],[-104.81594,38.91321],[-104.81905,38.89209],[-104.81875,38.87781],[-104.81966,38.87447],[-104.82266,38.87449],[-104.81947,38.87446],[-104.81862,38.87735],[-104.81902,38.88829]],[[-104.77587,38.84109],[-104.77581,38.83992],[-104.78545,38.83723],[-104.79645,38.83728],[-104.79449,38.83726],[-104.79427,38.84894],[-104.77579,38.84899]],[[-104.80296,39.1297],[-104.80295,39.11945],[-104.79603,39.11234],[-104.7945,39.10946],[-104.79419,39.07837],[-104.78494,39.07833],[-104.78475,39.03362],[-104.78182,39.03122],[-104.78182,39.02929]],[[-104.79631,38.78715],[-104.79025,38.78356]],[[-104.81014,38.95462],[-104.82321,38.95628],[-104.82979,38.9648],[-104.82954,38.97358],[-104.83498,38.9756]],[[-104.83355,38.84693],[-104.83804,38.84884],[-104.85396,38.8477]],[[-104.54,39.15241],[-104.54798,39.14352],[-104.55177,39.13577],[-104.55235,39.09078],[-104.54801,39.07824],[-104.54799,39.06075],[-104.57111,39.05974],[-104.57102,39.07113],[-104.57567,39.07147],[-104.64403,39.07128],[-104.64977,39.07008],[-104.65833,39.07121],[-104.78502,39.07097]],[[-104.76076,38.91653],[-104.75503,38.91679],[-104.76032,38.9167],[-104.76888,38.91459],[-104.77535,38.91406],[-104.77455,38.90787],[-104.77509,38.90549],[-104.78531,38.89413],[-104.78608,38.88777],[-104.79023,38.8832],[-104.79436,38.88109],[-104.7955,38.87865],[-104.79514,38.87376],[-104.81296,38.87419]],[[-104.9712,38.89671],[-104.97343,38.89882],[-104.97357,38.90331],[-104.97537,38.90503],[-104.98284,38.90836],[-104.98301,38.90993],[-104.98381,38.90757],[-104.97973,38.8995],[-104.983,38.89636],[-104.98547,38.89663],[-104.98893,38.90023],[-104.99814,38.9006],[-105.01261,38.9041],[-105.01356,38.90845],[-105.01972,38.9117],[-105.03057,38.91292],[-105.02274,38.91774],[-105.02283,38.91921],[-105.027,38.92291],[-105.02988,38.92194],[-105.03439,38.92252],[-105.03704,38.92174],[-105.03863,38.91846],[-105.04227,38.91822],[-105.04384,38.91735],[-105.04481,38.91526],[-105.05011,38.91361],[-105.05194,38.91032],[-105.05608,38.90758],[-105.05689,38.90551],[-105.06134,38.9044],[-105.0612,38.9029],[-105.06498,38.90139],[-105.06608,38.89881],[-105.06195,38.89527],[-105.06402,38.89493],[-105.0662,38.89274],[-105.06763,38.89372],[-105.06863,38.89329],[-105.06677,38.8909],[-105.06872,38.89126],[-105.07316,38.88726],[-105.07143,38.88736],[-105.0712,38.88216],[-105.07218,38.88155],[-105.07334,38.88243],[-105.07265,38.87915],[-105.07443,38.87989],[-105.07337,38.87442],[-105.07581,38.873],[-105.07385,38.87337],[-105.07077,38.87233],[-105.06864,38.87541],[-105.06549,38.87531],[-105.068,38.87437],[-105.06767,38.86979],[-105.06615,38.87101],[-105.06733,38.86897],[-105.06587,38.86902],[-105.06297,38.86677],[-105.06613,38.86774],[-105.06425,38.86619],[-105.06581,38.86682],[-105.06935,38.86517],[-105.06739,38.86527],[-105.06812,38.86449],[-105.06739,38.86231],[-105.06786,38.85928],[-105.06316,38.85681],[-105.06336,38.85305],[-105.06145,38.85105],[-105.06209,38.84889],[-105.05962,38.84785],[-105.05631,38.84917],[-105.05313,38.84843],[-105.05476,38.84686],[-105.05086,38.84537],[-105.04884,38.83834],[-105.04354,38.83708],[-105.04697,38.84007],[-105.04641,38.84156],[-105.04608,38.84005],[-105.04393,38.83995]],[[-104.75743,38.78176],[-104.76548,38.78203],[-104.76621,38.78569],[-104.76287,38.79074],[-104.77034,38.79573],[-104.7755,38.79672]],[[-104.90967,39.12636],[-104.90534,39.12867],[-104.90193,39.13312],[-104.89269,39.13945],[-104.88848,39.14708],[-104.87465,39.16378],[-104.87328,39.17]],[[-105.09,39.05752],[-105.0864,39.05546],[-105.08182,39.0481],[-105.07886,39.03246],[-105.07731,39.02869],[-105.07414,39.02493],[-105.06595,39.01943],[-105.06426,39.01733],[-105.06268,39.00006]],[[-104.72477,38.97118],[-104.73645,38.971]],[[-104.89704,38.85737],[-104.89923,38.85671],[-104.91685,38.85777],[-104.92068,38.86026],[-104.92439,38.86622],[-104.92588,38.87049]],[[-104.6527,38.92634],[-104.71595,38.92571],[-104.7212,38.92625],[-104.7256,38.92928],[-104.73481,38.92889],[-104.74307,38.93192],[-104.74715,38.93072],[-104.75114,38.92717],[-104.75948,38.92449],[-104.76849,38.9248],[-104.7721,38.92583],[-104.78476,38.92583],[-104.79041,38.92736],[-104.79685,38.9247],[-104.80308,38.92577],[-104.79685,38.9247]],[[-104.80302,38.84835],[-104.79406,38.85417],[-104.73168,38.85403],[-104.72528,38.85717],[-104.71868,38.85707],[-104.72283,38.85711]],[[-104.7479,38.87404],[-104.74805,38.84711],[-104.70485,38.84621],[-104.70165,38.84469],[-104.69949,38.84572],[-104.69927,38.84948],[-104.69796,38.85156],[-104.69803,38.85475],[-104.7004,38.85786],[-104.71868,38.85707]],[[-104.74944,38.8107],[-104.75477,38.80624],[-104.75513,38.80488],[-104.74597,38.80462],[-104.74365,38.80238],[-104.74286,38.79752],[-104.73641,38.79896],[-104.72902,38.79897]],[[-104.83523,38.82772],[-104.82929,38.82704],[-104.83528,38.82792]],[[-104.7461,38.83397],[-104.74991,38.83453],[-104.75436,38.83195],[-104.79471,38.83297],[-104.79437,38.82133],[-104.79229,38.81937],[-104.79204,38.81493],[-104.78829,38.81057],[-104.78538,38.80193],[-104.78812,38.81075],[-104.79141,38.81411]],[[-104.72926,38.78888],[-104.73883,38.78888],[-104.73887,38.78971],[-104.73892,38.78739],[-104.73982,38.78648],[-104.74405,38.78888],[-104.75904,38.78908],[-104.76247,38.79047],[-104.75907,38.78897],[-104.74411,38.78878],[-104.73982,38.78648],[-104.7388,38.78171],[-104.7393,38.7687],[-104.73901,38.78388],[-104.73993,38.78642]],[[-104.77591,38.83857],[-104.77599,38.82826],[-104.78049,38.82566],[-104.78037,38.80184],[-104.78187,38.79937],[-104.79016,38.7959],[-104.8082,38.7958],[-104.81816,38.798],[-104.82742,38.79611],[-104.81758,38.79782],[-104.80778,38.79562],[-104.79059,38.79572],[-104.78685,38.79663],[-104.78239,38.79876],[-104.78042,38.80092],[-104.78051,38.81751],[-104.77854,38.81721]],[[-104.79421,38.87066],[-104.79514,38.87376],[-104.79194,38.8737],[-104.78523,38.86868],[-104.77678,38.86725],[-104.77567,38.86567],[-104.77574,38.85926],[-104.76031,38.85939],[-104.74758,38.86183],[-104.73842,38.86784],[-104.7269,38.8682],[-104.72101,38.87217],[-104.71757,38.87199],[-104.70869,38.86812],[-104.70134,38.86789],[-104.70893,38.86803],[-104.71765,38.87183],[-104.7219,38.8719]],[[-104.78663,38.78088],[-104.78387,38.77682],[-104.78235,38.77602],[-104.77626,38.7776],[-104.77046,38.77683],[-104.75371,38.76147],[-104.74429,38.7512],[-104.74301,38.75195],[-104.74429,38.7512],[-104.71887,38.72357],[-104.71207,38.71072],[-104.71115,38.70709],[-104.7055,38.69652],[-104.70475,38.69675]],[[-104.72237,38.88535],[-104.6827,38.88704],[-104.68271,38.8533],[-104.68113,38.85119],[-104.68272,38.84902],[-104.68279,38.84147],[-104.68973,38.84229],[-104.6912,38.84325]],[[-104.81536,38.91133],[-104.81414,38.92076],[-104.81192,38.92507],[-104.80308,38.92577]],[[-104.71472,38.67127],[-104.71509,38.66906],[-104.71626,38.66817],[-104.73272,38.66782],[-104.73346,38.66639]],[[-104.69229,38.9261],[-104.69213,38.91716],[-104.69445,38.91422],[-104.69479,38.91236],[-104.68313,38.91172],[-104.7035,38.91218],[-104.71265,38.90961],[-104.72498,38.91229],[-104.73051,38.91188],[-104.7338,38.91324]],[[-104.84379,38.87626],[-104.84691,38.87601],[-104.84761,38.88443],[-104.84705,38.88766],[-104.85134,38.89321],[-104.84715,38.88749],[-104.8477,38.88025],[-104.84693,38.87615],[-104.84937,38.87594]],[[-104.72778,38.82699],[-104.72917,38.82496],[-104.7227,38.82605],[-104.72783,38.82479],[-104.7681,38.82536],[-104.76779,38.81891],[-104.7663,38.81706],[-104.76624,38.8099],[-104.76229,38.80636],[-104.75917,38.80495],[-104.75964,38.80352],[-104.76404,38.79976],[-104.76446,38.79752],[-104.76908,38.79336],[-104.77231,38.79227],[-104.77415,38.79275],[-104.77743,38.79588],[-104.77746,38.79691],[-104.78345,38.79798],[-104.78512,38.79975]],[[-104.83167,38.86074],[-104.83785,38.86048],[-104.84061,38.86236],[-104.84244,38.86694],[-104.84249,38.87141],[-104.84412,38.87313]],[[-104.73359,38.9132],[-104.73043,38.91172],[-104.72495,38.91215],[-104.71237,38.90945],[-104.70365,38.91201],[-104.69479,38.91236],[-104.69645,38.90784],[-104.69678,38.89864],[-104.70175,38.89536],[-104.70201,38.89095],[-104.7036,38.88834],[-104.70362,38.88458],[-104.70147,38.87981],[-104.7013,38.87517],[-104.70127,38.87961],[-104.70333,38.88429],[-104.70345,38.88828],[-104.70188,38.89083],[-104.70173,38.89512],[-104.69876,38.89709]],[[-104.70165,38.84469],[-104.70155,38.83897],[-104.68279,38.83817],[-104.68256,38.82519],[-104.68174,38.82321]],[[-104.72479,38.92904],[-104.73489,38.92906],[-104.73903,38.93123],[-104.74335,38.93207],[-104.74732,38.93078],[-104.75206,38.92698],[-104.75433,38.93345],[-104.75678,38.93729],[-104.75643,38.93925],[-104.75604,38.93634],[-104.76112,38.93647],[-104.76293,38.9393],[-104.76373,38.94407],[-104.76802,38.94671],[-104.7704,38.94952],[-104.77148,38.95287],[-104.7697,38.95711],[-104.78418,38.96065],[-104.79874,38.95868],[-104.79865,38.96605],[-104.79874,38.95854],[-104.78435,38.96049],[-104.77031,38.95701],[-104.76439,38.95672],[-104.76533,38.95156],[-104.77343,38.94659],[-104.77528,38.94226],[-104.77535,38.91406],[-104.782,38.91574],[-104.78736,38.915]],[[-104.83275,38.85076],[-104.83584,38.85061],[-104.83804,38.84884],[-104.84033,38.85048],[-104.85069,38.86248],[-104.85463,38.86466],[-104.85903,38.86891],[-104.86314,38.87069],[-104.86573,38.87797]],[[-104.81727,39.02735],[-104.81619,39.02251],[-104.80905,39.01695],[-104.80853,39.01087],[-104.80591,39.00875],[-104.79884,39.00719],[-104.79692,39.00513],[-104.79806,39.00091],[-104.79837,38.96723],[-104.79894,38.96639],[-104.80115,38.9686]],[[-104.80346,38.94861],[-104.79991,38.95366],[-104.79874,38.95854],[-104.80003,38.95386],[-104.80356,38.94872]],[[-104.8012,38.96828],[-104.79865,38.96605],[-104.79818,38.96708],[-104.79788,39.00076],[-104.79672,39.00507],[-104.7988,39.00736],[-104.80583,39.00896],[-104.80834,39.01099],[-104.80878,39.01692],[-104.81591,39.0225],[-104.81703,39.02734]],[[-104.68822,38.95503],[-104.69738,38.94633],[-104.69826,38.94429],[-104.70092,38.94373],[-104.70064,38.95815],[-104.70487,38.95811],[-104.71436,38.96225],[-104.71784,38.96117],[-104.71452,38.96194]],[[-104.76973,38.95818],[-104.77245,38.9636],[-104.77633,38.96584],[-104.77715,38.96754]],[[-104.66339,38.86385],[-104.66653,38.86693],[-104.66985,38.86808],[-104.70104,38.8681],[-104.7013,38.87517]],[[-104.67893,38.80749],[-104.6795,38.80993],[-104.67878,38.81335],[-104.67998,38.81603],[-104.68029,38.82032],[-104.68245,38.82334],[-104.68496,38.82459],[-104.69061,38.82465],[-104.69464,38.82434],[-104.69624,38.82318]],[[-104.77066,38.98074],[-104.77111,38.98219],[-104.76312,38.98527],[-104.75806,38.9835]],[[-104.79808,38.98039],[-104.77154,38.98198],[-104.76334,38.98505],[-104.7609,38.98494]],[[-104.74992,38.96185],[-104.75073,38.96053],[-104.75036,38.95672],[-104.7697,38.95711]],[[-104.72917,38.82486],[-104.75173,38.82535]],[[-104.72917,38.78906],[-104.73881,38.78903],[-104.73885,38.7877]],[[-104.72218,38.95986],[-104.72501,38.9583]],[[-104.65956,38.78386],[-104.65978,38.76224],[-104.67404,38.76224],[-104.68293,38.76095]],[[-104.78058,38.81892],[-104.78051,38.81751],[-104.7927,38.8173],[-104.79785,38.82072],[-104.80442,38.82112],[-104.80461,38.81639],[-104.80309,38.81344],[-104.78983,38.80628],[-104.78649,38.80588]],[[-104.74431,38.97565],[-104.74855,38.97333],[-104.74284,38.96901],[-104.73866,38.97113],[-104.74042,38.97584],[-104.73628,38.96632],[-104.73094,38.96222],[-104.72783,38.96155],[-104.72669,38.9603]],[[-104.72053,38.82721],[-104.71584,38.83117],[-104.70822,38.83221],[-104.70797,38.83035],[-104.70155,38.82593],[-104.70191,38.82472],[-104.70729,38.82143]],[[-104.70155,38.83897],[-104.70155,38.82604],[-104.70778,38.83034],[-104.70809,38.8324],[-104.71497,38.83162],[-104.71721,38.83017]],[[-104.69672,38.82306],[-104.69994,38.82574],[-104.70155,38.82593],[-104.70147,38.84302]],[[-104.70117,38.93907],[-104.70115,38.94362],[-104.6983,38.94413],[-104.69724,38.94641]],[[-104.70038,38.95813],[-104.70074,38.95983],[-104.7008,38.95814],[-104.70433,38.95816],[-104.71421,38.96186]],[[-104.74439,38.97589],[-104.75685,38.96839],[-104.75786,38.96246],[-104.76365,38.95964],[-104.76417,38.95672],[-104.76382,38.9597],[-104.75809,38.96242],[-104.75773,38.96599],[-104.76499,38.96608],[-104.77248,38.96808],[-104.78642,38.96672],[-104.79237,38.96493],[-104.79843,38.96617],[-104.79561,38.96486],[-104.79234,38.96477],[-104.78625,38.96657],[-104.7729,38.9679],[-104.7647,38.96587],[-104.74784,38.96579],[-104.74387,38.96818],[-104.74763,38.96602],[-104.75773,38.96599],[-104.75693,38.96859],[-104.74983,38.97267]],[[-104.73543,38.97118],[-104.73866,38.97113],[-104.7379,38.96857],[-104.73538,38.96522],[-104.73094,38.96222]],[[-104.60998,38.93799],[-104.60754,38.94063],[-104.6076,38.96984],[-104.60782,38.94043],[-104.61231,38.93664],[-104.61323,38.9345],[-104.61135,38.93146],[-104.61281,38.93523],[-104.60998,38.93799]],[[-104.74135,38.80858],[-104.73639,38.81507],[-104.73226,38.81721],[-104.73162,38.81626],[-104.72913,38.81608]],[[-104.81782,38.83653],[-104.82147,38.83665],[-104.82261,38.81981]],[[-104.65504,38.76221],[-104.65978,38.76224],[-104.65961,38.75733],[-104.64853,38.74669],[-104.64838,38.74265],[-104.64988,38.73756],[-104.71904,38.73727],[-104.71947,38.76559],[-104.71823,38.7675]],[[-104.60316,39.07142],[-104.6033,39.06915],[-104.60591,39.06749],[-104.60736,39.06513],[-104.6076,38.96984],[-104.58396,38.96972],[-104.58071,38.96868]],[[-104.75427,38.83981],[-104.76659,38.83981],[-104.7544,38.83965]],[[-104.6827,38.88704],[-104.68268,38.901]],[[-104.72066,38.78107],[-104.69955,38.78121],[-104.69791,38.78199],[-104.69741,38.78378],[-104.69742,38.79644],[-104.70314,38.79706],[-104.70433,38.79604],[-104.70495,38.78202],[-104.72065,38.78122]],[[-104.82022,38.93085],[-104.82219,38.92958],[-104.82828,38.92956],[-104.83219,38.92815]],[[-104.75692,38.77007],[-104.74346,38.7701]],[[-104.87042,39.01916],[-104.8639,39.0188],[-104.84141,39.02401]],[[-104.84216,39.02401],[-104.85201,39.02163]],[[-104.75604,38.93634],[-104.75104,38.92585],[-104.74039,38.9204],[-104.73807,38.92042]],[[-104.85134,38.89321],[-104.85176,38.89973],[-104.85748,38.90336],[-104.86208,38.90379],[-104.86355,38.90525],[-104.86373,38.92843],[-104.86921,38.93627],[-104.8755,38.93722],[-104.87627,38.93931],[-104.87507,38.94185]],[[-104.83684,38.86061],[-104.84064,38.86269],[-104.84237,38.86731],[-104.84235,38.87144],[-104.84404,38.87323]],[[-104.65821,38.71788],[-104.66131,38.71899],[-104.67142,38.71911],[-104.68234,38.72121]],[[-104.71063,38.75922],[-104.71919,38.75891],[-104.71904,38.73727],[-104.73085,38.73671],[-104.71983,38.72455],[-104.71637,38.7191]],[[-104.73502,38.72447],[-104.74337,38.72585],[-104.73461,38.72434]],[[-104.78989,39.01695],[-104.78026,39.02158],[-104.78208,39.02148],[-104.78385,39.01975],[-104.78989,39.01695]],[[-104.82349,38.8678],[-104.82524,38.83818]],[[-104.80345,38.8739],[-104.79231,38.87362],[-104.7903,38.87285]],[[-104.78651,38.80595],[-104.78961,38.80634],[-104.80331,38.81371]],[[-104.69249,38.92611],[-104.69235,38.91714],[-104.69474,38.9141],[-104.69513,38.91053],[-104.69657,38.90808],[-104.69674,38.90048]],[[-104.6779,38.94518],[-104.68068,38.94902],[-104.68095,38.95298],[-104.68692,38.95699]],[[-104.74879,38.97351],[-104.74959,38.97249],[-104.74387,38.96818],[-104.73883,38.97092],[-104.7246,38.97091]],[[-104.66349,38.86377],[-104.66679,38.86694],[-104.66989,38.86797],[-104.70134,38.86789],[-104.70198,38.86246],[-104.7004,38.85786],[-104.69661,38.85972],[-104.69397,38.8643],[-104.68971,38.86475],[-104.68969,38.86809]],[[-104.76564,38.92524],[-104.75939,38.92461],[-104.75206,38.92698],[-104.749,38.92404],[-104.74012,38.92018],[-104.73828,38.92035]],[[-104.81776,38.83794],[-104.81707,38.85046],[-104.82074,38.85058],[-104.8217,38.83807]],[[-104.79421,38.85908],[-104.79426,38.84973],[-104.80293,38.85]],[[-104.70043,38.95795],[-104.70115,38.94362]],[[-104.70074,38.95983],[-104.70027,39.07115]],[[-104.66334,39.01305],[-104.76722,39.0127],[-104.77634,39.01035],[-104.77834,39.00905]],[[-104.54,39.04494],[-104.54796,39.04901],[-104.54799,39.06075]],[[-104.68307,38.90703],[-104.68274,38.9267],[-104.71591,38.92586],[-104.72207,38.92684]],[[-104.72945,38.73731],[-104.73066,38.73675],[-104.74738,38.75468]],[[-104.74301,38.75195],[-104.73874,38.75451],[-104.7393,38.7687]],[[-104.83121,39.03062],[-104.83285,39.03194],[-104.83616,39.04018],[-104.84238,39.04332],[-104.84454,39.04665],[-104.84482,39.05982],[-104.84833,39.06369],[-104.85026,39.06862],[-104.85099,39.07368],[-104.85634,39.0766],[-104.85745,39.07856]],[[-104.57199,38.83839],[-104.62956,38.83892],[-104.6434,38.83486],[-104.68279,38.84147],[-104.68279,38.83817],[-104.68039,38.83758],[-104.67548,38.83768],[-104.67278,38.83959]],[[-104.73637,38.76988],[-104.73368,38.76846],[-104.73111,38.7639],[-104.72524,38.75981],[-104.72167,38.75902],[-104.72462,38.75962],[-104.73057,38.76365],[-104.73368,38.76846]],[[-104.73887,38.98382],[-104.75784,38.98358]],[[-104.70529,38.97367],[-104.71172,38.97668],[-104.7165,38.97556]],[[-104.71622,38.97539],[-104.71161,38.97648],[-104.70544,38.97343]],[[-104.6524,38.73047],[-104.65001,38.73059],[-104.64763,38.73284],[-104.64159,38.73309],[-104.63724,38.73486],[-104.62231,38.73482],[-104.61397,38.73197],[-104.61029,38.73195]],[[-104.6244,38.74013],[-104.6103,38.73763]],[[-104.54,38.83864],[-104.57723,38.83848]],[[-104.85166,38.8941],[-104.85095,38.89827],[-104.85166,38.89981],[-104.85744,38.90347],[-104.86296,38.9046]],[[-104.79421,38.86199],[-104.78739,38.85943],[-104.77574,38.85926],[-104.77583,38.85073]],[[-104.69943,38.72338],[-104.69533,38.73408],[-104.69526,38.73739]],[[-104.8519,38.79842],[-104.84085,38.80161]],[[-104.75594,38.79644],[-104.75369,38.79997],[-104.74696,38.80329],[-104.74213,38.80778]],[[-104.73736,38.95466],[-104.74408,38.95473],[-104.7504,38.95656],[-104.74294,38.95446],[-104.73121,38.95452],[-104.72803,38.95607],[-104.73109,38.95473],[-104.73736,38.95466]],[[-104.67366,38.69398],[-104.60892,38.694]],[[-104.87089,38.87791],[-104.87392,38.8837],[-104.87428,38.88754]],[[-104.7066,38.82089],[-104.70165,38.82476],[-104.70138,38.82604],[-104.69644,38.82322]],[[-104.6514,38.9435],[-104.65169,38.93119],[-104.65292,38.92749],[-104.65295,38.92229],[-104.65853,38.91375],[-104.65934,38.91105],[-104.65513,38.91088],[-104.65233,38.91235]],[[-104.67833,38.95648],[-104.68278,38.95424],[-104.67981,38.95627],[-104.66559,38.95913],[-104.66384,38.96076],[-104.66237,38.96525]],[[-104.65902,38.91101],[-104.65851,38.91335],[-104.65274,38.92254],[-104.65264,38.92785],[-104.65149,38.93118],[-104.65117,38.94351]],[[-104.68377,38.9591],[-104.67229,38.96995],[-104.66596,38.96584],[-104.66222,38.9647]],[[-104.78799,38.7534],[-104.79527,38.76421]],[[-104.66214,38.9649],[-104.66548,38.96581],[-104.67438,38.97142],[-104.67686,38.97159]],[[-104.66812,38.97675],[-104.66911,38.97304],[-104.67211,38.97011],[-104.67424,38.97158],[-104.67684,38.97177]]]}},{"type":"Feature","properties":{"kind":"road","name":"I-25","major":true},"geometry":{"type":"MultiLineString","coordinates":[[[-104.85159,39.17],[-104.8617,39.14248],[-104.86596,39.11767],[-104.86365,39.09591],[-104.85673,39.06643],[-104.85545,39.06312],[-104.84117,39.03912],[-104.83738,39.03009],[-104.83196,39.02075],[-104.81907,39.00208],[-104.8125,38.98437],[-104.80188,38.96287],[-104.80128,38.96048],[-104.80175,38.95772],[-104.80317,38.95553],[-104.811,38.9504],[-104.81359,38.94717],[-104.81411,38.94421],[-104.81276,38.93422],[-104.81532,38.91847],[-104.81697,38.91589],[-104.82377,38.91053],[-104.82544,38.9085],[-104.8358,38.88535],[-104.83624,38.88137],[-104.83365,38.86851],[-104.83437,38.85841],[-104.83278,38.85416],[-104.83021,38.84126],[-104.83056,38.83603],[-104.83466,38.8308],[-104.83635,38.82423],[-104.83633,38.82188],[-104.83493,38.8198],[-104.82978,38.81614],[-104.82642,38.81516],[-104.81918,38.81474],[-104.81541,38.81386],[-104.81198,38.81209],[-104.80365,38.80594],[-104.80086,38.80252],[-104.79528,38.79182],[-104.78427,38.77851],[-104.78009,38.77027],[-104.77659,38.76559],[-104.77318,38.7623],[-104.76415,38.7555],[-104.73056,38.72213],[-104.72365,38.70675],[-104.72033,38.69358],[-104.71384,38.67946],[-104.7015,38.66265],[-104.69429,38.64448],[-104.69113,38.63]],[[-104.69081,38.63],[-104.69395,38.64444],[-104.70119,38.66273],[-104.71366,38.67968],[-104.72006,38.69362],[-104.72369,38.7076],[-104.72867,38.71951],[-104.73053,38.72252],[-104.76415,38.75584],[-104.77303,38.76249],[-104.77711,38.76652],[-104.78043,38.77122],[-104.78381,38.77817],[-104.79526,38.79207],[-104.80074,38.80275],[-104.80346,38.80607],[-104.81228,38.8126],[-104.8152,38.814],[-104.81895,38.81488],[-104.82639,38.81533],[-104.82997,38.81643],[-104.83475,38.81992],[-104.83608,38.82191],[-104.83619,38.82361],[-104.83454,38.83044],[-104.83034,38.83572],[-104.82987,38.8416],[-104.83241,38.85418],[-104.834,38.85844],[-104.83327,38.86859],[-104.83582,38.88122],[-104.83526,38.8857],[-104.82523,38.9083],[-104.82392,38.91003],[-104.81677,38.91569],[-104.81504,38.91839],[-104.81235,38.93406],[-104.81387,38.94422],[-104.81324,38.94733],[-104.81084,38.95021],[-104.80276,38.95559],[-104.80138,38.95782],[-104.80096,38.96049],[-104.80143,38.96257],[-104.81221,38.98445],[-104.81905,39.00269],[-104.85494,39.06285],[-104.85643,39.06649],[-104.86349,39.09649],[-104.86572,39.11717],[-104.86152,39.14223],[-104.85123,39.17]]]}},{"type":"Feature","properties":{"kind":"road","name":"US 24","major":false},"geometry":{"type":"MultiLineString","coordinates":[[[-104.92123,38.86538],[-104.91083,38.85992],[-104.90043,38.86018],[-104.89358,38.85689],[-104.87642,38.85379],[-104.87413,38.85256],[-104.86785,38.84686],[-104.87363,38.85231],[-104.87701,38.85407],[-104.89373,38.85705],[-104.9002,38.86023],[-104.90567,38.85976],[-104.91139,38.86021],[-104.92084,38.86517],[-104.92396,38.86947],[-104.92734,38.87246],[-104.93008,38.87595],[-104.93365,38.87667],[-104.93632,38.87613],[-104.94136,38.87873],[-104.9449,38.87862],[-104.94657,38.87998],[-104.94944,38.88102],[-104.95079,38.88405],[-104.95343,38.88703],[-104.95583,38.88801],[-104.95756,38.88956],[-104.95998,38.89004],[-104.96278,38.88882],[-104.9646,38.88957],[-104.97105,38.89625],[-104.97168,38.90001],[-104.97001,38.90489],[-104.97119,38.90766],[-104.98521,38.91909],[-104.99593,38.92512],[-105.00114,38.93175],[-105.00832,38.93582],[-105.01103,38.93885],[-105.01938,38.94422],[-105.02103,38.94639],[-105.0245,38.94913],[-105.0298,38.96245],[-105.03545,38.96959],[-105.03821,38.97428],[-105.04483,38.98208],[-105.04603,38.98695],[-105.05002,38.99349],[-105.0526,38.9945],[-105.05751,38.99402],[-105.05951,38.99294],[-105.06193,38.98892],[-105.06301,38.98451],[-105.06446,38.98299],[-105.06701,38.98169],[-105.06473,38.98268],[-105.06297,38.98435],[-105.06184,38.98875],[-105.05907,38.99316],[-105.05726,38.99396],[-105.05277,38.99438],[-105.05053,38.99379],[-105.04612,38.98686],[-105.04482,38.98174],[-105.03869,38.97429],[-105.03685,38.9703],[-105.0301,38.96234],[-105.02504,38.94918],[-105.02234,38.94717],[-105.01971,38.9439],[-105.01233,38.93917],[-105.00866,38.93555],[-105.00146,38.9314],[-104.99616,38.92488],[-104.98535,38.91897],[-104.97139,38.90747],[-104.97033,38.90468],[-104.97188,38.90018],[-104.9711,38.89599],[-104.9678,38.89322],[-104.9648,38.88923],[-104.96303,38.88851],[-104.95996,38.88952],[-104.9584,38.88937],[-104.95365,38.88665],[-104.95135,38.88398],[-104.94969,38.88077],[-104.94477,38.87829],[-104.94132,38.87837],[-104.93652,38.87605],[-104.933,38.87654],[-104.93021,38.87595],[-104.92768,38.87264],[-104.92406,38.86945],[-104.92123,38.86538]],[[-104.83579,38.82803],[-104.83914,38.83068],[-104.86157,38.84173],[-104.86528,38.84462],[-104.86183,38.84174],[-104.83969,38.83078],[-104.8366,38.82811]],[[-104.79871,38.80853],[-104.79146,38.81078],[-104.7832,38.81626],[-104.77449,38.81794],[-104.76966,38.81532],[-104.76801,38.81511],[-104.77011,38.81563],[-104.77386,38.81805],[-104.78424,38.81618],[-104.79051,38.81155],[-104.79748,38.809],[-104.80477,38.8085],[-104.80939,38.81054]],[[-104.54,38.98359],[-104.60092,38.93827],[-104.6164,38.92797],[-104.64537,38.88668],[-104.65909,38.8681],[-104.66237,38.86492],[-104.67925,38.85455],[-104.68906,38.84492],[-104.69561,38.84064],[-104.70473,38.83914],[-104.72073,38.83913]],[[-104.71595,38.83892],[-104.70499,38.83894],[-104.69562,38.84043],[-104.68914,38.84453],[-104.68251,38.85154],[-104.67881,38.85458],[-104.66217,38.86476],[-104.6589,38.868],[-104.6451,38.88657],[-104.62667,38.91356]],[[-104.81198,38.81209],[-104.81009,38.80854],[-104.80706,38.80818]],[[-104.72095,38.83925],[-104.72116,38.83112],[-104.73,38.81587],[-104.73033,38.80702]],[[-104.76801,38.81511],[-104.76309,38.81513],[-104.75889,38.81372],[-104.75282,38.81355],[-104.73679,38.80665],[-104.73015,38.80607],[-104.72972,38.81612],[-104.72113,38.83057],[-104.7207,38.83433]],[[-104.73124,38.80623],[-104.73704,38.8069],[-104.75241,38.81359],[-104.75884,38.81386],[-104.76309,38.81513]],[[-104.86528,38.84462],[-104.86785,38.84686]],[[-104.60778,38.93378],[-104.60949,38.93263]],[[-105.06701,38.98169],[-105.07026,38.98119],[-105.07188,38.98032],[-105.08475,38.96513],[-105.09,38.96169]]]}},{"type":"Feature","properties":{"kind":"road","name":"Hwy 83","major":false},"geometry":{"type":"MultiLineString","coordinates":[[[-104.78099,38.99872],[-104.77648,39.0024],[-104.77564,39.00453],[-104.78005,39.01205],[-104.78075,39.01766],[-104.77981,39.02421],[-104.77575,39.03441],[-104.77525,39.03824],[-104.77345,39.03985],[-104.7702,39.04105],[-104.76393,39.04843],[-104.76394,39.05627],[-104.76203,39.06046],[-104.7614,39.06475],[-104.76191,39.07267],[-104.76694,39.0786],[-104.76793,39.08385],[-104.77045,39.0878],[-104.7709,39.09207],[-104.77112,39.11266],[-104.76658,39.1219],[-104.76641,39.13877],[-104.76443,39.14261],[-104.75168,39.15571],[-104.75079,39.15939],[-104.74178,39.17]],[[-104.77576,39.00499],[-104.77663,39.00244],[-104.78114,38.9988]]]}},{"type":"Feature","properties":{"kind":"road","name":"Academy","major":false},"geometry":{"type":"MultiLineString","coordinates":[[[-104.78736,38.915],[-104.78815,38.91155],[-104.78667,38.90914],[-104.76498,38.90013],[-104.75855,38.89453],[-104.75727,38.89243],[-104.75764,38.81558],[-104.75729,38.85129],[-104.75652,38.85342],[-104.75643,38.85752],[-104.75712,38.85978],[-104.75711,38.89265],[-104.75837,38.89458],[-104.76488,38.90025],[-104.78541,38.90857],[-104.78712,38.90976],[-104.788,38.9121],[-104.78677,38.9171],[-104.78703,38.91877],[-104.78823,38.92007],[-104.7919,38.92164],[-104.79342,38.92302],[-104.79409,38.92484],[-104.79333,38.92929],[-104.79667,38.93346],[-104.80081,38.94545],[-104.80884,38.954],[-104.81014,38.95462]],[[-104.81529,38.76594],[-104.78904,38.76568],[-104.76811,38.76471],[-104.76418,38.76577],[-104.75889,38.76932],[-104.75743,38.77155],[-104.75702,38.77908],[-104.75757,38.81013],[-104.75765,38.781],[-104.7572,38.77907],[-104.75768,38.77147],[-104.7591,38.76943],[-104.76437,38.76593],[-104.76814,38.76491],[-104.78902,38.76593],[-104.81529,38.76594]],[[-104.81067,38.95453],[-104.80886,38.95379],[-104.80113,38.94561],[-104.79679,38.93331],[-104.79355,38.92944],[-104.79381,38.92636]],[[-104.75755,38.81548],[-104.75757,38.81013]],[[-104.79409,38.92484],[-104.79332,38.9226],[-104.79057,38.92102]]]}},{"type":"Feature","properties":{"kind":"road","name":"Woodmen","major":false},"geometry":{"type":"MultiLineString","coordinates":[[[-104.60092,38.93827],[-104.60365,38.94029],[-104.60603,38.94083],[-104.65404,38.94087],[-104.66404,38.94039],[-104.69341,38.94137],[-104.72135,38.94029],[-104.74765,38.94025],[-104.75415,38.93819],[-104.76079,38.93756],[-104.77097,38.93328],[-104.78583,38.93322],[-104.78901,38.93263],[-104.79935,38.93318],[-104.81515,38.933],[-104.81793,38.93251],[-104.82022,38.93085],[-104.82144,38.93181],[-104.82294,38.93506],[-104.83659,38.94006],[-104.84858,38.94357],[-104.85662,38.94435],[-104.85988,38.94403],[-104.86508,38.94661],[-104.86808,38.94706],[-104.86871,38.94779],[-104.86848,38.94852],[-104.86641,38.94945],[-104.86324,38.9524],[-104.86347,38.95391],[-104.865,38.9545],[-104.87085,38.95418],[-104.87437,38.95326],[-104.87935,38.95414],[-104.88556,38.94956],[-104.8861,38.94829],[-104.88574,38.94757],[-104.88035,38.94606],[-104.87912,38.94433],[-104.87651,38.94342],[-104.87507,38.94185]],[[-104.78066,38.93307],[-104.77093,38.93312],[-104.76074,38.93742],[-104.75413,38.93804],[-104.74799,38.94008],[-104.72164,38.94011],[-104.6925,38.94111],[-104.66428,38.94013],[-104.65552,38.94061],[-104.60591,38.94062],[-104.60344,38.93993],[-104.60114,38.93811]],[[-104.8201,38.93077],[-104.81807,38.93228],[-104.8158,38.93283],[-104.78958,38.93249],[-104.78189,38.93307]]]}},{"type":"Feature","properties":{"kind":"road","name":"Powers","major":false},"geometry":{"type":"MultiLineString","coordinates":[[[-104.77825,38.99615],[-104.77284,38.99069],[-104.72501,38.9546],[-104.72237,38.95191],[-104.72054,38.94863],[-104.71987,38.94531],[-104.72017,38.93294],[-104.71966,38.91932],[-104.72031,38.8518],[-104.72091,38.84831],[-104.72095,38.83925]],[[-104.7207,38.83433],[-104.71945,38.91783],[-104.71955,38.94498],[-104.72015,38.94826],[-104.72213,38.95196],[-104.72462,38.95446],[-104.77255,38.99095],[-104.7779,38.99625]],[[-104.73033,38.80702],[-104.73026,38.79063],[-104.72874,38.78838],[-104.72293,38.78525],[-104.72117,38.78323],[-104.72073,38.77072],[-104.71905,38.76787],[-104.71677,38.76651],[-104.71426,38.76598],[-104.68851,38.76593],[-104.68555,38.76487],[-104.68344,38.76269],[-104.68292,38.76081],[-104.68234,38.72121]],[[-104.68216,38.72115],[-104.6827,38.76083],[-104.6833,38.76289],[-104.68536,38.76498],[-104.68846,38.76611],[-104.71426,38.76616],[-104.71705,38.76683],[-104.71907,38.76818],[-104.72054,38.77105],[-104.72109,38.78349],[-104.72292,38.78545],[-104.72852,38.7884],[-104.73009,38.79068],[-104.73015,38.80607]]]}},{"type":"Feature","properties":{"kind":"road","name":"Garden of the Gods","major":false},"geometry":{"type":"MultiLineString","coordinates":[[[-104.81825,38.89765],[-104.82156,38.89691],[-104.81827,38.89746]],[[-104.8724,38.89784],[-104.86999,38.8966],[-104.82545,38.89686],[-104.87,38.89674],[-104.87227,38.89795]],[[-104.82156,38.89691],[-104.82545,38.89686]]]}},{"type":"Feature","properties":{"kind":"road","name":"Austin Bluffs","major":false},"geometry":{"type":"MultiLineString","coordinates":[[[-104.74054,38.94214],[-104.73971,38.9408],[-104.73975,38.93744],[-104.74202,38.93059],[-104.73874,38.92599],[-104.73841,38.9206],[-104.73369,38.91384],[-104.73916,38.90452],[-104.74215,38.90177],[-104.739,38.90445],[-104.73349,38.91407],[-104.73825,38.92076],[-104.73849,38.9259],[-104.74179,38.9308],[-104.7395,38.93737],[-104.73947,38.94096],[-104.74178,38.94325],[-104.74284,38.94729],[-104.7418,38.94964],[-104.73934,38.95255],[-104.73937,38.9561],[-104.74387,38.96035],[-104.74884,38.96134],[-104.75033,38.96218],[-104.75104,38.96357],[-104.75098,38.96595]],[[-104.74215,38.90177],[-104.75532,38.89103],[-104.76603,38.8907],[-104.77554,38.88924],[-104.78633,38.88917],[-104.7898,38.88776],[-104.79995,38.89117],[-104.80488,38.89176],[-104.80637,38.89352],[-104.80716,38.89664],[-104.80857,38.89769],[-104.81825,38.89765]],[[-104.81827,38.89746],[-104.80864,38.89756],[-104.80731,38.89659],[-104.80662,38.89363],[-104.80497,38.89164],[-104.80004,38.89105],[-104.79004,38.88765],[-104.78628,38.88907],[-104.77529,38.88899],[-104.76621,38.89052],[-104.7555,38.89081],[-104.75131,38.89416]],[[-104.75391,38.89176],[-104.75392,38.89195]],[[-104.74863,38.96133],[-104.75051,38.96245]],[[-104.75118,38.96595],[-104.75107,38.96393]],[[-104.7513,38.89395],[-104.74355,38.9006]],[[-104.73925,38.95363],[-104.73924,38.95555]]]}},{"type":"Feature","properties":{"kind":"road","name":"Templeton Gap","major":false},"geometry":{"type":"MultiLineString","coordinates":[[[-104.73483,38.91596],[-104.73275,38.91678],[-104.72867,38.91651],[-104.7202,38.9218],[-104.72014,38.92257],[-104.72342,38.92545],[-104.72207,38.92684]]]}},{"type":"Feature","properties":{"kind":"road","name":"Baptist","major":false},"geometry":{"type":"MultiLineString","coordinates":[[[-104.78502,39.07097],[-104.79026,39.07095],[-104.79219,39.0703],[-104.80107,39.06171],[-104.80682,39.05994],[-104.81004,39.05686],[-104.82406,39.05665]],[[-104.85838,39.05634],[-104.85496,39.0565]],[[-104.83214,39.05665],[-104.8546,39.05671]],[[-104.8588,39.05644],[-104.86415,39.05686]],[[-104.85874,39.05667],[-104.85924,39.05655]],[[-104.85462,39.05647],[-104.81597,39.05658]],[[-104.85491,39.05674],[-104.8583,39.05662]]]}},{"type":"Feature","properties":{"kind":"place","name":"Colorado Springs"},"geometry":{"type":"Point","coordinates":[-104.82535,38.83396]}},{"type":"Feature","properties":{"kind":"place","name":"Manitou Springs"},"geometry":{"type":"Point","coordinates":[-104.91787,38.85858]}},{"type":"Feature","properties":{"kind":"place","name":"Monument"},"geometry":{"type":"Point","coordinates":[-104.87276,39.09166]}},{"type":"Feature","properties":{"kind":"place","name":"Falcon"},"geometry":{"type":"Point","coordinates":[-104.60864,38.93335]}},{"type":"Feature","properties":{"kind":"place","name":"Fountain"},"geometry":{"type":"Point","coordinates":[-104.70081,38.68222]}},{"type":"Feature","properties":{"kind":"place","name":"Black Forest"},"geometry":{"type":"Point","coordinates":[-104.70114,39.014]}},{"type":"Feature","properties":{"kind":"place","name":"Security-Widefield"},"geometry":{"type":"Point","coordinates":[-104.7315,38.74583]}}]}
