{
  "type": "FeatureCollection",
  "features": [
    {
      "type": "Feature",
      "properties": {
        "zone": "home"
      },
      "geometry": {
        "type": "Polygon",
        "coordinates": [
          [
            [
              -104.93,
              38.87
            ],
            [
              -104.93,
              38.845
            ],
            [
              -104.895,
              38.815
            ],
            [
              -104.864207,
              38.790772
            ],
            [
              -104.86397,
              38.776729
            ],
            [
              -104.838433,
              38.742662
            ],
            [
              -104.81131,
              38.75222
            ],
            [
              -104.812,
              38.766
            ],
            [
              -104.797,
              38.7655
            ],
            [
              -104.775,
              38.765
            ],
            [
              -104.766118,
              38.764899
            ],
            [
              -104.757622,
              38.770285
            ],
            [
              -104.757624,
              38.783733
            ],
            [
              -104.7575,
              38.8254
            ],
            [
              -104.757542,
              38.83905
            ],
            [
              -104.7569,
              38.8909
            ],
            [
              -104.79,
              38.896
            ],
            [
              -104.8181,
              38.8976
            ],
            [
              -104.826,
              38.8975
            ],
            [
              -104.8724,
              38.8979
            ],
            [
              -104.9,
              38.89
            ],
            [
              -104.93,
              38.87
            ]
          ]
        ]
      }
    },
    {
      "type": "Feature",
      "properties": {
        "zone": "shared"
      },
      "geometry": {
        "type": "Polygon",
        "coordinates": [
          [
            [
              -104.8724,
              38.8979
            ],
            [
              -104.826,
              38.8975
            ],
            [
              -104.8181,
              38.8976
            ],
            [
              -104.79,
              38.896
            ],
            [
              -104.7569,
              38.8909
            ],
            [
              -104.757527,
              38.893572
            ],
            [
              -104.764421,
              38.899919
            ],
            [
              -104.786453,
              38.908927
            ],
            [
              -104.788167,
              38.911289
            ],
            [
              -104.786623,
              38.918218
            ],
            [
              -104.788442,
              38.920357
            ],
            [
              -104.792742,
              38.922011
            ],
            [
              -104.794177,
              38.924582
            ],
            [
              -104.793314,
              38.929538
            ],
            [
              -104.796346,
              38.932708
            ],
            [
              -104.8151,
              38.9328
            ],
            [
              -104.8202,
              38.9309
            ],
            [
              -104.86,
              38.938
            ],
            [
              -104.881792,
              38.937884
            ],
            [
              -104.885187,
              38.915669
            ],
            [
              -104.8724,
              38.8979
            ]
          ]
        ]
      }
    },
    {
      "type": "Feature",
      "properties": {
        "zone": "north"
      },
      "geometry": {
        "type": "Polygon",
        "coordinates": [
          [
            [
              -104.86,
              38.938
            ],
            [
              -104.8202,
              38.9309
            ],
            [
              -104.8151,
              38.9328
            ],
            [
              -104.796346,
              38.932708
            ],
            [
              -104.793314,
              38.929538
            ],
            [
              -104.794177,
              38.924582
            ],
            [
              -104.792742,
              38.922011
            ],
            [
              -104.788442,
              38.920357
            ],
            [
              -104.786623,
              38.918218
            ],
            [
              -104.788167,
              38.911289
            ],
            [
              -104.786453,
              38.908927
            ],
            [
              -104.764421,
              38.899919
            ],
            [
              -104.757527,
              38.893572
            ],
            [
              -104.7569,
              38.8909
            ],
            [
              -104.719906,
              38.893384
            ],
            [
              -104.71997,
              38.940102
            ],
            [
              -104.7012,
              38.9411
            ],
            [
              -104.700914,
              38.974187
            ],
            [
              -104.777067,
              38.9948
            ],
            [
              -104.7802,
              39.0126
            ],
            [
              -104.7782,
              39.0285
            ],
            [
              -104.784883,
              39.056667
            ],
            [
              -104.8266,
              39.0567
            ],
            [
              -104.8449,
              39.0567
            ],
            [
              -104.88,
              39.056
            ],
            [
              -104.89,
              39
            ],
            [
              -104.891394,
              38.950339
            ],
            [
              -104.881792,
              38.937884
            ],
            [
              -104.86,
              38.938
            ]
          ]
        ]
      }
    }
  ]
}
